{"type": "FeatureCollection", "features": [ {"type": "Feature", "properties": {"norad_id": 39620, "name": "COSMOS 2492 (754)", "group": "gnss", "lat": 21.611093201712553, "lon": -29.190709201841667, "alt_km": 19116.851335389496, "timestamp": "2025-12-09T18:55:17.474899+00:00", "meta": {"OBJECT_NAME": "COSMOS 2492 (754)", "OBJECT_ID": "2014-012A", "EPOCH": "2025-12-09T06:54:46.186848", "MEAN_MOTION": 2.13102988, "ECCENTRICITY": 0.00142075, "INCLINATION": 65.4097, "RA_OF_ASC_NODE": 320.3884, "ARG_OF_PERICENTER": 310.998, "MEAN_ANOMALY": 48.8757, "EPHEMERIS_TYPE": 0, "CLASSIFICATION_TYPE": "U", "NORAD_CAT_ID": 39620, "ELEMENT_SET_NO": 999, "REV_AT_EPOCH": 9119, "BSTAR": 0, "MEAN_MOTION_DOT": -4.9e-07, "MEAN_MOTION_DDOT": 0}, "tle": {"line1": "1 39620U 14012A   25343.28803457 -.00000049  00000+0  00000+0 0  9994", "line2": "2 39620  65.4097 320.3884 0014207 310.9980  48.8757  2.13102988 91198"}}, "geometry": {"type": "Point", "coordinates": [-29.190709201841667, 21.611093201712553]}}, {"type": "Feature", "properties": {"norad_id": 39635, "name": "IRNSS-1B", "group": "gnss", "lat": 2.895764967843952, "lon": 58.414780504421735, "alt_km": 35710.569666111114, "timestamp": "2025-12-09T18:55:17.474910+00:00", "meta": {"OBJECT_NAME": "IRNSS-1B", "OBJECT_ID": "2014-017A", "EPOCH": "2025-12-07T19:02:08.350080", "MEAN_MOTION": 1.00276938, "ECCENTRICITY": 0.00176548, "INCLINATION": 28.8332, "RA_OF_ASC_NODE": 243.6763, "ARG_OF_PERICENTER": 183.0277, "MEAN_ANOMALY": 350.7455, "EPHEMERIS_TYPE": 0, "CLASSIFICATION_TYPE": "U", "NORAD_CAT_ID": 39635, "ELEMENT_SET_NO": 999, "REV_AT_EPOCH": 4287, "BSTAR": 0, "MEAN_MOTION_DOT": 1.18e-06, "MEAN_MOTION_DDOT": 0}, "tle": {"line1": "1 39635U 14017A   25341.79315220  .00000118  00000+0  00000+0 0  9991", "line2": "2 39635  28.8332 243.6763 0017654 183.0277 350.7455  1.00276938 42872"}}, "geometry": {"type": "Point", "coordinates": [58.414780504421735, 2.895764967843952]}}, {"type": "Feature", "properties": {"norad_id": 39727, "name": "LUCH 5V (SDCM/PRN 141)", "group": "gnss", "lat": 2.046327614721718, "lon": 97.28878880097608, "alt_km": 35805.7126491022, "timestamp": "2025-12-09T18:55:17.474922+00:00", "meta": {"OBJECT_NAME": "LUCH 5V (SDCM/PRN 141)", "OBJECT_ID": "2014-023A", "EPOCH": "2025-12-08T17:28:47.961696", "MEAN_MOTION": 1.00270251, "ECCENTRICITY": 0.00045753, "INCLINATION": 4.6594, "RA_OF_ASC_NODE": 71.5729, "ARG_OF_PERICENTER": 204.2143, "MEAN_ANOMALY": 158.9163, "EPHEMERIS_TYPE": 0, "CLASSIFICATION_TYPE": "U", "NORAD_CAT_ID": 39727, "ELEMENT_SET_NO": 999, "REV_AT_EPOCH": 4245, "BSTAR": 0, "MEAN_MOTION_DOT": -2.68e-06, "MEAN_MOTION_DDOT": 0}, "tle": {"line1": "1 39727U 14023A   25342.72833289 -.00000268  00000+0  00000+0 0  9991", "line2": "2 39727   4.6594  71.5729 0004575 204.2143 158.9163  1.00270251 42452"}}, "geometry": {"type": "Point", "coordinates": [97.28878880097608, 2.046327614721718]}}, {"type": "Feature", "properties": {"norad_id": 39741, "name": "GPS BIIF-6  (PRN 06)", "group": "gnss", "lat": -21.37454649599176, "lon": 173.85799992517968, "alt_km": 20224.77837124046, "timestamp": "2025-12-09T18:55:17.474933+00:00", "meta": {"OBJECT_NAME": "GPS BIIF-6  (PRN 06)", "OBJECT_ID": "2014-026A", "EPOCH": "2025-12-09T12:03:20.841120", "MEAN_MOTION": 2.00561505, "ECCENTRICITY": 0.00391055, "INCLINATION": 56.5849, "RA_OF_ASC_NODE": 338.9023, "ARG_OF_PERICENTER": 318.4921, "MEAN_ANOMALY": 41.2219, "EPHEMERIS_TYPE": 0, "CLASSIFICATION_TYPE": "U", "NORAD_CAT_ID": 39741, "ELEMENT_SET_NO": 999, "REV_AT_EPOCH": 8473, "BSTAR": 0, "MEAN_MOTION_DOT": -8.4e-07, "MEAN_MOTION_DDOT": 0}, "tle": {"line1": "1 39741U 14026A   25343.50232455 -.00000084  00000+0  00000+0 0  9991", "line2": "2 39741  56.5849 338.9023 0039105 318.4921  41.2219  2.00561505 84732"}}, "geometry": {"type": "Point", "coordinates": [173.85799992517968, -21.37454649599176]}}, {"type": "Feature", "properties": {"norad_id": 40001, "name": "COSMOS 2500 (755)", "group": "gnss", "lat": -59.663040906837885, "lon": -168.19299652062458, "alt_km": 19118.12275078155, "timestamp": "2025-12-09T18:55:17.474944+00:00", "meta": {"OBJECT_NAME": "COSMOS 2500 (755)", "OBJECT_ID": "2014-032A", "EPOCH": "2025-12-09T11:02:48.490944", "MEAN_MOTION": 2.13105796, "ECCENTRICITY": 0.00083097, "INCLINATION": 65.3451, "RA_OF_ASC_NODE": 320.1442, "ARG_OF_PERICENTER": 219.1348, "MEAN_ANOMALY": 140.802, "EPHEMERIS_TYPE": 0, "CLASSIFICATION_TYPE": "U", "NORAD_CAT_ID": 40001, "ELEMENT_SET_NO": 999, "REV_AT_EPOCH": 8941, "BSTAR": 0, "MEAN_MOTION_DOT": -4.9e-07, "MEAN_MOTION_DDOT": 0}, "tle": {"line1": "1 40001U 14032A   25343.46028346 -.00000049  00000+0  00000+0 0  9997", "line2": "2 40001  65.3451 320.1442 0008309 219.1348 140.8020  2.13105796 89416"}}, "geometry": {"type": "Point", "coordinates": [-168.19299652062458, -59.663040906837885]}}, {"type": "Feature", "properties": {"norad_id": 40105, "name": "GPS BIIF-7  (PRN 09)", "group": "gnss", "lat": 29.076662335542906, "lon": -106.6868001770915, "alt_km": 20098.320686582876, "timestamp": "2025-12-09T18:55:17.474955+00:00", "meta": {"OBJECT_NAME": "GPS BIIF-7  (PRN 09)", "OBJECT_ID": "2014-045A", "EPOCH": "2025-12-09T14:09:41.937408", "MEAN_MOTION": 2.00572274, "ECCENTRICITY": 0.00327632, "INCLINATION": 55.2273, "RA_OF_ASC_NODE": 96.0246, "ARG_OF_PERICENTER": 119.7913, "MEAN_ANOMALY": 240.5219, "EPHEMERIS_TYPE": 0, "CLASSIFICATION_TYPE": "U", "NORAD_CAT_ID": 40105, "ELEMENT_SET_NO": 999, "REV_AT_EPOCH": 8227, "BSTAR": 0, "MEAN_MOTION_DOT": 2e-08, "MEAN_MOTION_DDOT": 0}, "tle": {"line1": "1 40105U 14045A   25343.59006872  .00000002  00000+0  00000+0 0  9998", "line2": "2 40105  55.2273  96.0246 0032763 119.7913 240.5219  2.00572274 82276"}}, "geometry": {"type": "Point", "coordinates": [-106.6868001770915, 29.076662335542906]}}, {"type": "Feature", "properties": {"norad_id": 40128, "name": "GSAT0201 (GALILEO 5)", "group": "gnss", "lat": 34.892440437893185, "lon": -41.665172534945484, "alt_km": 23513.02433125427, "timestamp": "2025-12-09T18:55:17.474967+00:00", "meta": {"OBJECT_NAME": "GSAT0201 (GALILEO 5)", "OBJECT_ID": "2014-050A", "EPOCH": "2025-12-07T12:54:32.900256", "MEAN_MOTION": 1.85519488, "ECCENTRICITY": 0.16474216, "INCLINATION": 49.0828, "RA_OF_ASC_NODE": 281.2757, "ARG_OF_PERICENTER": 172.085, "MEAN_ANOMALY": 190.9173, "EPHEMERIS_TYPE": 0, "CLASSIFICATION_TYPE": "U", "NORAD_CAT_ID": 40128, "ELEMENT_SET_NO": 999, "REV_AT_EPOCH": 7476, "BSTAR": 0, "MEAN_MOTION_DOT": -5.9e-07, "MEAN_MOTION_DDOT": 0}, "tle": {"line1": "1 40128U 14050A   25341.53788079 -.00000059  00000+0  00000+0 0  9990", "line2": "2 40128  49.0828 281.2757 1647421 172.0850 190.9173  1.85519488 74761"}}, "geometry": {"type": "Point", "coordinates": [-41.665172534945484, 34.892440437893185]}}, {"type": "Feature", "properties": {"norad_id": 40129, "name": "GSAT0202 (GALILEO 6)", "group": "gnss", "lat": -48.98218272664041, "lon": -164.19527106119546, "alt_km": 21709.556954976295, "timestamp": "2025-12-09T18:55:17.474978+00:00", "meta": {"OBJECT_NAME": "GSAT0202 (GALILEO 6)", "OBJECT_ID": "2014-050B", "EPOCH": "2025-12-08T20:55:50.636640", "MEAN_MOTION": 1.85520286, "ECCENTRICITY": 0.16482545, "INCLINATION": 49.097, "RA_OF_ASC_NODE": 280.3049, "ARG_OF_PERICENTER": 172.8865, "MEAN_ANOMALY": 189.8198, "EPHEMERIS_TYPE": 0, "CLASSIFICATION_TYPE": "U", "NORAD_CAT_ID": 40129, "ELEMENT_SET_NO": 999, "REV_AT_EPOCH": 7695, "BSTAR": 0, "MEAN_MOTION_DOT": -6.8e-07, "MEAN_MOTION_DDOT": 0}, "tle": {"line1": "1 40129U 14050B   25342.87211385 -.00000068  00000+0  00000+0 0  9990", "line2": "2 40129  49.0970 280.3049 1648254 172.8865 189.8198  1.85520286 76958"}}, "geometry": {"type": "Point", "coordinates": [-164.19527106119546, -48.98218272664041]}}, {"type": "Feature", "properties": {"norad_id": 40269, "name": "IRNSS-1C", "group": "gnss", "lat": -0.7340031109593467, "lon": 85.51394678981328, "alt_km": 35713.01700312385, "timestamp": "2025-12-09T18:55:17.474989+00:00", "meta": {"OBJECT_NAME": "IRNSS-1C", "OBJECT_ID": "2014-061A", "EPOCH": "2025-12-09T08:49:49.938240", "MEAN_MOTION": 1.00268269, "ECCENTRICITY": 0.00177713, "INCLINATION": 6.0324, "RA_OF_ASC_NODE": 92.69, "ARG_OF_PERICENTER": 2.4127, "MEAN_ANOMALY": 198.6303, "EPHEMERIS_TYPE": 0, "CLASSIFICATION_TYPE": "U", "NORAD_CAT_ID": 40269, "ELEMENT_SET_NO": 999, "REV_AT_EPOCH": 4078, "BSTAR": 0, "MEAN_MOTION_DOT": -1.58e-06, "MEAN_MOTION_DDOT": 0}, "tle": {"line1": "1 40269U 14061A   25343.36793910 -.00000158  00000+0  00000+0 0  9991", "line2": "2 40269   6.0324  92.6900 0017771   2.4127 198.6303  1.00268269 40786"}}, "geometry": {"type": "Point", "coordinates": [85.51394678981328, -0.7340031109593467]}}, {"type": "Feature", "properties": {"norad_id": 40294, "name": "GPS BIIF-8  (PRN 03)", "group": "gnss", "lat": -41.563249456809935, "lon": -106.34962459603186, "alt_km": 20341.751786322813, "timestamp": "2025-12-09T18:55:17.475000+00:00", "meta": {"OBJECT_NAME": "GPS BIIF-8  (PRN 03)", "OBJECT_ID": "2014-068A", "EPOCH": "2025-12-09T11:13:35.595840", "MEAN_MOTION": 2.00564545, "ECCENTRICITY": 0.00607875, "INCLINATION": 56.8554, "RA_OF_ASC_NODE": 38.2726, "ARG_OF_PERICENTER": 69.25, "MEAN_ANOMALY": 291.455, "EPHEMERIS_TYPE": 0, "CLASSIFICATION_TYPE": "U", "NORAD_CAT_ID": 40294, "ELEMENT_SET_NO": 999, "REV_AT_EPOCH": 8140, "BSTAR": 0, "MEAN_MOTION_DOT": -8.3e-07, "MEAN_MOTION_DDOT": 0}, "tle": {"line1": "1 40294U 14068A   25343.46777310 -.00000083  00000+0  00000+0 0  9990", "line2": "2 40294  56.8554  38.2726 0060787  69.2500 291.4550  2.00564545 81402"}}, "geometry": {"type": "Point", "coordinates": [-106.34962459603186, -41.563249456809935]}}]}